{"fetched_at":"2026-03-29T02:12:04Z","count":15717,"tles":[{"name":"STARLINK-1922","line1":"1 46753U 20074Q   26087.58487179  .00113501  00000+0  99319-3 0  9994","line2":"2 46753  53.0448 190.8495 0005437  22.2556 337.8695 15.68064856300179","category":"Starlink"}]}