{
  "norad_id": 46753,
  "name": "STARLINK-1922",
  "history": [
    {
      "epoch": "2026-03-28T14:02:12.922656Z",
      "apogee_km": 368.1052509606907,
      "perigee_km": 360.77202569644396,
      "latitude_deg": 2.5540352816863865e-05,
      "longitude_deg": 154.2924629617208,
      "height_km": 361.94432167038826,
      "semi_major_axis_km": 6742.575638328567,
      "eccentricity": 0.0005438,
      "inclination_deg": 53.0448,
      "raan_deg": 190.8495,
      "arg_perigee_deg": 22.2556,
      "mean_anomaly_deg": 337.8695,
      "mean_motion_rev_day": 15.68064856
    }
  ]
}